NORAD_CAT_ID,OBJECT_NAME,OBJECT_TYPE,EPOCH,MEAN_MOTION,ECCENTRICITY,INCLINATION,RA_OF_ASC_NODE,ARG_OF_PERICENTER,MEAN_ANOMALY,BSTAR,MEAN_MOTION_DOT,MEAN_MOTION_DDOT,TLE_LINE0,TLE_LINE1,TLE_LINE2,SEMIMAJOR_AXIS,PERIOD,APOGEE,PERIGEE,DECAYED
56799.0,STARLINK-5953,PAYLOAD,2023-11-04 11:58:45,14.98330547,0.0003,69.999,343.1119,269.8415,90.2401,-3.7189e-05,-5.37e-06,0.0,0 STARLINK-5953,1 56799U 23078AJ  23308.49913917 -.00000537  00000-0 -37189-4 0  9994,2 56799  69.9990 343.1119 0003000 269.8415  90.2401 14.98330547 24433,6950.191,96.107,574.141,569.971,0.0
56799.0,STARLINK-5953,PAYLOAD,2023-11-05 04:00:06,14.98328026,0.0002968,69.9988,341.4282,268.9497,91.1321,8.0724e-05,8.7e-06,0.0,0 STARLINK-5953,1 56799U 23078AJ  23309.16673716  .00000870  00000-0  80724-4 0  9990,2 56799  69.9988 341.4282 0002968 268.9497  91.1321 14.98328026 24793,6950.199,96.107,574.127,570.001,0.0
56799.0,STARLINK-5953,PAYLOAD,2023-11-05 12:00:45,14.98337744,0.000268,69.9992,340.5873,263.8631,96.2223,7.502e-05,8.02e-06,0.0,0 STARLINK-5953,1 56799U 23078AJ  23309.50053025  .00000802  00000-0  75020-4 0  9991,2 56799  69.9992 340.5873 0002680 263.8631  96.2223 14.98337744 24849,6950.169,96.107,573.897,570.171,0.0
56799.0,STARLINK-5953,PAYLOAD,2023-11-05 20:01:26,14.98331989,0.0002988,69.9998,339.7452,263.7742,96.3077,1.4556e-05,8.1e-07,0.0,0 STARLINK-5953,1 56799U 23078AJ  23309.83433336  .00000081  00000-0  14556-4 0  9990,2 56799  69.9998 339.7452 0002988 263.7742  96.3077 14.98331989 24899,6950.187,96.107,574.128,569.975,0.0
56799.0,STARLINK-5953,PAYLOAD,2023-11-06 12:02:46,14.98341208,0.0002837,69.9989,338.0623,265.7721,94.3113,0.00016961,1.932e-05,0.0,0 STARLINK-5953,1 56799U 23078AJ  23310.50192159  .00001932  00000-0  16961-3 0  9998,2 56799  69.9989 338.0623 0002837 265.7721  94.3113 14.98341208 24998,6950.158,96.106,573.995,570.051,0.0
56799.0,STARLINK-5953,PAYLOAD,2023-11-07 04:04:10,14.98305336,0.000292,69.9989,336.3787,275.4771,84.6055,-0.00036184,-4.405e-05,0.0,0 STARLINK-5953,1 56799U 23078AJ  23311.16956107 -.00004405  00000-0 -36184-3 0  9991,2 56799  69.9989 336.3787 0002920 275.4771  84.6055 14.98305336 25097,6950.269,96.109,574.164,570.105,0.0
56799.0,STARLINK-5953,PAYLOAD,2023-11-07 12:04:50,14.9830461,0.0002867,69.9987,335.5367,273.0694,87.0137,-0.00029895,-3.656e-05,0.0,0 STARLINK-5953,1 56799U 23078AJ  23311.50336453 -.00003656  00000-0 -29895-3 0  9993,2 56799  69.9987 335.5367 0002867 273.0694  87.0137 14.98304610 24886,6950.271,96.109,574.129,570.144,0.0
56799.0,STARLINK-5953,PAYLOAD,2023-11-07 18:29:21,14.98337659,0.000323,69.9984,334.8631,278.9033,81.176,-0.00061466,-7.421e-05,0.0,0 STARLINK-5953,1 56799U 23078AJ  23311.77039280 -.00007421  00000-0 -61466-3 0  9994,2 56799  69.9984 334.8631 0003230 278.9033  81.1760 14.98337659 25185,6950.169,96.107,574.279,569.789,0.0
56799.0,STARLINK-5953,PAYLOAD,2023-11-08 02:30:02,14.98326805,0.0002814,69.9988,334.0203,275.6916,84.3922,-0.00035795,-4.361e-05,0.0,0 STARLINK-5953,1 56799U 23078AJ  23312.10419926 -.00004361  00000-0 -35795-3 0  9997,2 56799  69.9988 334.0203 0002814 275.6916  84.3922 14.98326805 25239,6950.203,96.107,574.024,570.112,0.0
56799.0,STARLINK-5953,PAYLOAD,2023-11-08 12:06:51,14.98316133,0.000186,69.9993,333.0119,260.3651,99.7298,7.1923e-05,7.65e-06,0.0,0 STARLINK-5953,1 56799U 23078AJ  23312.50475766  .00000765  00000-0  71923-4 0  9991,2 56799  69.9993 333.0119 0001860 260.3651  99.7298 14.98316133 25034,6950.236,96.108,573.394,570.808,0.0
56799.0,STARLINK-5953,PAYLOAD,2023-11-08 18:31:22,14.98346612,0.0002511,70.0,332.3398,271.9951,88.0921,-0.00033605,-4.102e-05,0.0,0 STARLINK-5953,1 56799U 23078AJ  23312.77178817 -.00004102  00000-0 -33605-3 0  9992,2 56799  70.0000 332.3398 0002511 271.9951  88.0921 14.98346612 25334,6950.142,96.106,573.752,570.261,0.0
56799.0,STARLINK-5953,PAYLOAD,2023-11-09 04:08:10,14.98318511,0.0002836,69.9993,331.3292,277.0563,83.0273,0.00038536,4.507e-05,0.0,0 STARLINK-5953,1 56799U 23078AJ  23313.17234876  .00004507  00000-0  38536-3 0  9990,2 56799  69.9993 331.3292 0002836 277.0563  83.0273 14.98318511 25398,6950.228,96.108,574.065,570.122,0.0
56799.0,STARLINK-5953,PAYLOAD,2023-11-09 08:56:35,14.98318693,0.0002318,69.9998,330.8245,265.7481,94.3413,0.0003734,4.364e-05,0.0,0 STARLINK-5953,1 56799U 23078AJ  23313.37263033  .00004364  00000-0  37340-3 0  9992,2 56799  69.9998 330.8245 0002318 265.7481  94.3413 14.98318693 25160,6950.228,96.108,573.704,570.482,0.0
56799.0,STARLINK-5953,PAYLOAD,2023-11-09 18:33:23,14.98346337,0.000241,70.0001,329.814,280.8172,79.2716,-1.2631e-05,-2.44e-06,0.0,0 STARLINK-5953,1 56799U 23078AJ  23313.77318358 -.00000244  00000-0 -12631-4 0  9999,2 56799  70.0001 329.8140 0002410 280.8172  79.2716 14.98346337 25487,6950.142,96.106,573.682,570.332,0.0
56799.0,STARLINK-5953,PAYLOAD,2023-11-10 10:34:43,14.98342472,0.0002638,69.9989,328.1303,271.1731,88.9126,0.00018746,2.145e-05,0.0,0 STARLINK-5953,1 56799U 23078AJ  23314.44077669  .00002145  00000-0  18746-3 0  9993,2 56799  69.9989 328.1303 0002638 271.1731  88.9126 14.98342472 25329,6950.154,96.106,573.853,570.186,0.0
56799.0,STARLINK-5953,PAYLOAD,2023-11-10 18:35:24,14.98332741,0.0002263,70.0009,327.2881,287.6622,72.429,4.579e-05,4.54e-06,0.0,0 STARLINK-5953,1 56799U 23078AJ  23314.77458690  .00000454  00000-0  45790-4 0  9997,2 56799  70.0009 327.2881 0002263 287.6622  72.4290 14.98332741 25633,6950.184,96.107,573.622,570.477,0.0
56799.0,STARLINK-5953,PAYLOAD,2023-11-11 10:36:44,14.9833605,0.000278,69.9986,325.6038,271.5554,88.5286,-9.9922e-05,-1.285e-05,0.0,0 STARLINK-5953,1 56799U 23078AJ  23315.44218201 -.00001285  00000-0 -99922-4 0  9995,2 56799  69.9986 325.6038 0002780 271.5554  88.5286 14.98336050 25472,6950.174,96.107,573.971,570.107,0.0
56799.0,STARLINK-5953,PAYLOAD,2023-11-11 18:37:24,14.98334821,0.0002624,69.999,324.7619,273.2558,86.8301,-0.00013111,-1.657e-05,0.0,0 STARLINK-5953,1 56799U 23078AJ  23315.77598260 -.00001657  00000-0 -13111-3 0  9995,2 56799  69.9990 324.7619 0002624 273.2558  86.8301 14.98334821 25789,6950.178,96.107,573.867,570.219,0.0
56799.0,STARLINK-5953,PAYLOAD,2023-11-12 10:38:44,14.98339158,0.0002873,69.9991,323.0791,271.8137,88.2693,-8.7819e-05,-1.141e-05,0.0,0 STARLINK-5953,1 56799U 23078AJ  23316.44357406 -.00001141  00000-0 -87819-4 0  9990,2 56799  69.9991 323.0791 0002873 271.8137  88.2693 14.98339158 25885,6950.165,96.106,574.026,570.033,0.0
56799.0,STARLINK-5953,PAYLOAD,2023-11-13 10:40:45,14.98333891,0.0002781,69.9997,320.554,271.6447,88.4393,7.8113e-05,8.39e-06,0.0,0 STARLINK-5953,1 56799U 23078AJ  23317.44497028  .00000839  00000-0  78113-4 0  9994,2 56799  69.9997 320.5540 0002781 271.6447  88.4393 14.98333891 26030,6950.181,96.107,573.979,570.113,0.0
56799.0,STARLINK-5953,PAYLOAD,2023-11-13 17:05:18,14.98311898,0.0002621,70.0,319.881,285.07,75.0169,0.00036136,4.219e-05,0.0,0 STARLINK-5953,1 56799U 23078AJ  23317.71201922  .00004219  00000-0  36136-3 0  9994,2 56799  70.0000 319.8810 0002621 285.0700  75.0169 14.98311898 26073,6950.249,96.108,573.936,570.292,0.0
56799.0,STARLINK-5953,PAYLOAD,2023-11-14 04:18:14,14.98340132,0.0002186,69.9999,318.703,275.887,84.204,-0.00017139,-2.138e-05,0.0,0 STARLINK-5953,1 56799U 23078AJ  23318.17933327 -.00002138  00000-0 -17139-3 0  9998,2 56799  69.9999 318.7030 0002186 275.8870  84.2040 14.98340132 26141,6950.162,96.106,573.546,570.507,0.0
56799.0,STARLINK-5953,PAYLOAD,2023-11-14 10:42:45,14.98366528,0.0002013,69.9999,318.0296,270.2873,89.8055,-0.00061466,-7.426e-05,0.0,0 STARLINK-5953,1 56799U 23078AJ  23318.44636508 -.00007426  00000-0 -61466-3 0  9996,2 56799  69.9999 318.0296 0002013 270.2873  89.8055 14.98366528 26187,6950.08,96.105,573.344,570.546,0.0
56799.0,STARLINK-5953,PAYLOAD,2023-11-14 17:07:18,14.98345098,0.0002684,69.9999,317.356,274.4693,85.616,-0.00029112,-3.566e-05,0.0,0 STARLINK-5953,1 56799U 23078AJ  23318.71341008 -.00003566  00000-0 -29112-3 0  9997,2 56799  69.9999 317.3560 0002684 274.4693  85.6160 14.98345098 26228,6950.146,96.106,573.877,570.146,0.0
56799.0,STARLINK-5953,PAYLOAD,2023-11-15 02:44:07,14.9832941,0.0002586,69.9996,316.3462,266.1322,93.9541,-3.6185e-05,-5.25e-06,0.0,0 STARLINK-5953,1 56799U 23078AJ  23319.11397383 -.00000525  00000-0 -36185-4 0  9990,2 56799  69.9996 316.3462 0002586 266.1322  93.9541 14.98329410 26284,6950.195,96.107,573.857,570.262,0.0
56799.0,STARLINK-5953,PAYLOAD,2023-11-15 09:08:39,14.98338767,0.0002516,69.9996,315.6727,267.9224,92.1647,-0.00018841,-2.341e-05,0.0,0 STARLINK-5953,1 56799U 23078AJ  23319.38101173 -.00002341  00000-0 -18841-3 0  9995,2 56799  69.9996 315.6727 0002516 267.9224  92.1647 14.98338767 26062,6950.166,96.106,573.779,570.282,0.0
56799.0,STARLINK-5953,PAYLOAD,2023-11-16 02:46:08,14.9832728,0.0002703,69.9995,313.8211,271.7239,88.361,-1.7766e-05,-3.05e-06,0.0,0 STARLINK-5953,1 56799U 23078AJ  23320.11537494 -.00000305  00000-0 -17766-4 0  9991,2 56799  69.9995 313.8211 0002703 271.7239  88.3610 14.98327280 26432,6950.201,96.107,573.945,570.188,0.0
56799.0,STARLINK-5953,PAYLOAD,2023-11-16 09:10:40,14.9832646,0.000265,69.9996,313.1479,269.5033,90.5822,-1.5816e-05,-2.82e-06,0.0,0 STARLINK-5953,1 56799U 23078AJ  23320.38241574 -.00000282  00000-0 -15816-4 0  9999,2 56799  69.9996 313.1479 0002650 269.5033  90.5822 14.98326460 26215,6950.204,96.107,573.911,570.227,0.0
56799.0,STARLINK-5953,PAYLOAD,2023-11-16 17:11:20,14.98327913,0.0002723,69.9997,312.305,272.8948,87.19,-1.2965e-05,-2.48e-06,0.0,0 STARLINK-5953,1 56799U 23078AJ  23320.71621507 -.00000248  00000-0 -12965-4 0  9998,2 56799  69.9997 312.3050 0002723 272.8948  87.1900 14.98327913 26263,6950.199,96.107,573.957,570.172,0.0
56799.0,STARLINK-5953,PAYLOAD,2023-11-17 02:48:09,14.98327617,0.0002823,69.999,311.2957,271.9316,88.1519,2.0894e-05,1.56e-06,0.0,0 STARLINK-5953,1 56799U 23078AJ  23321.11677443  .00000156  00000-0  20894-4 0  9999,2 56799  69.9990 311.2957 0002823 271.9316  88.1519 14.98327617 26583,6950.2,96.107,574.027,570.103,0.0
